CCSDS_OMM_VERS = 2.0
CREATION_DATE  = 
ORIGINATOR     = 

OBJECT_NAME    = ZORKY-2M 7
OBJECT_ID      = 2025-313W
CENTER_NAME    = EARTH
REF_FRAME      = TEME
TIME_SYSTEM    = UTC
MEAN_ELEMENT_THEORY = SGP/SGP4

EPOCH          = 2026-01-21T07:25:43.875840
MEAN_MOTION    = 15.20311009
ECCENTRICITY   = .0016048
INCLINATION    = 97.4102
RA_OF_ASC_NODE = 98.3589
ARG_OF_PERICENTER = 155.6351
MEAN_ANOMALY   = 204.5647

EPHEMERIS_TYPE = 0
CLASSIFICATION_TYPE = U
NORAD_CAT_ID   = 67268
ELEMENT_SET_NO = 999
REV_AT_EPOCH   = 361
BSTAR          = .71206E-3
MEAN_MOTION_DOT = .1548E-3
MEAN_MOTION_DDOT = 0

CCSDS_OMM_VERS = 2.0
CREATION_DATE  = 
ORIGINATOR     = 

OBJECT_NAME    = 2025-313X
OBJECT_ID      = 2025-313X
CENTER_NAME    = EARTH
REF_FRAME      = TEME
TIME_SYSTEM    = UTC
MEAN_ELEMENT_THEORY = SGP/SGP4

EPOCH          = 2026-01-21T07:22:59.664864
MEAN_MOTION    = 15.20584111
ECCENTRICITY   = .0015832
INCLINATION    = 97.4129
RA_OF_ASC_NODE = 98.3790
ARG_OF_PERICENTER = 154.0842
MEAN_ANOMALY   = 206.1189

EPHEMERIS_TYPE = 0
CLASSIFICATION_TYPE = U
NORAD_CAT_ID   = 67269
ELEMENT_SET_NO = 999
REV_AT_EPOCH   = 361
BSTAR          = .13091E-2
MEAN_MOTION_DOT = .28792E-3
MEAN_MOTION_DDOT = 0

CCSDS_OMM_VERS = 2.0
CREATION_DATE  = 
ORIGINATOR     = 

OBJECT_NAME    = SITRO-TD-3
OBJECT_ID      = 2025-313Y
CENTER_NAME    = EARTH
REF_FRAME      = TEME
TIME_SYSTEM    = UTC
MEAN_ELEMENT_THEORY = SGP/SGP4

EPOCH          = 2026-01-21T07:25:42.552192
MEAN_MOTION    = 15.20355309
ECCENTRICITY   = .0016052
INCLINATION    = 97.4102
RA_OF_ASC_NODE = 98.3692
ARG_OF_PERICENTER = 155.6885
MEAN_ANOMALY   = 204.5111

EPHEMERIS_TYPE = 0
CLASSIFICATION_TYPE = U
NORAD_CAT_ID   = 67270
ELEMENT_SET_NO = 999
REV_AT_EPOCH   = 361
BSTAR          = .92205E-3
MEAN_MOTION_DOT = .20103E-3
MEAN_MOTION_DDOT = 0

CCSDS_OMM_VERS = 2.0
CREATION_DATE  = 
ORIGINATOR     = 

OBJECT_NAME    = 2025-313Z
OBJECT_ID      = 2025-313Z
CENTER_NAME    = EARTH
REF_FRAME      = TEME
TIME_SYSTEM    = UTC
MEAN_ELEMENT_THEORY = SGP/SGP4

EPOCH          = 2026-01-21T10:37:28.211232
MEAN_MOTION    = 15.20105531
ECCENTRICITY   = .0016181
INCLINATION    = 97.4099
RA_OF_ASC_NODE = 98.4867
ARG_OF_PERICENTER = 151.2709
MEAN_ANOMALY   = 208.9421

EPHEMERIS_TYPE = 0
CLASSIFICATION_TYPE = U
NORAD_CAT_ID   = 67271
ELEMENT_SET_NO = 999
REV_AT_EPOCH   = 363
BSTAR          = .41678E-3
MEAN_MOTION_DOT = .8971E-4
MEAN_MOTION_DDOT = 0

CCSDS_OMM_VERS = 2.0
CREATION_DATE  = 
ORIGINATOR     = 

OBJECT_NAME    = 2025-313AA
OBJECT_ID      = 2025-313AA
CENTER_NAME    = EARTH
REF_FRAME      = TEME
TIME_SYSTEM    = UTC
MEAN_ELEMENT_THEORY = SGP/SGP4

EPOCH          = 2026-01-21T12:06:35.557344
MEAN_MOTION    = 15.20578405
ECCENTRICITY   = .0015774
INCLINATION    = 97.4101
RA_OF_ASC_NODE = 98.5552
ARG_OF_PERICENTER = 155.4373
MEAN_ANOMALY   = 204.7617

EPHEMERIS_TYPE = 0
CLASSIFICATION_TYPE = U
NORAD_CAT_ID   = 67272
ELEMENT_SET_NO = 999
REV_AT_EPOCH   = 364
BSTAR          = .93986E-3
MEAN_MOTION_DOT = .20626E-3
MEAN_MOTION_DDOT = 0

CCSDS_OMM_VERS = 2.0
CREATION_DATE  = 
ORIGINATOR     = 

OBJECT_NAME    = 2025-313AB
OBJECT_ID      = 2025-313AB
CENTER_NAME    = EARTH
REF_FRAME      = TEME
TIME_SYSTEM    = UTC
MEAN_ELEMENT_THEORY = SGP/SGP4

EPOCH          = 2026-01-21T10:37:25.908672
MEAN_MOTION    = 15.20064407
ECCENTRICITY   = .0015153
INCLINATION    = 97.4116
RA_OF_ASC_NODE = 98.4912
ARG_OF_PERICENTER = 159.3854
MEAN_ANOMALY   = 200.7996

EPHEMERIS_TYPE = 0
CLASSIFICATION_TYPE = U
NORAD_CAT_ID   = 67273
ELEMENT_SET_NO = 999
REV_AT_EPOCH   = 363
BSTAR          = .31266E-3
MEAN_MOTION_DOT = .67E-4
MEAN_MOTION_DDOT = 0

CCSDS_OMM_VERS = 2.0
CREATION_DATE  = 
ORIGINATOR     = 

OBJECT_NAME    = 2025-313AC
OBJECT_ID      = 2025-313AC
CENTER_NAME    = EARTH
REF_FRAME      = TEME
TIME_SYSTEM    = UTC
MEAN_ELEMENT_THEORY = SGP/SGP4

EPOCH          = 2026-01-21T05:50:20.292288
MEAN_MOTION    = 15.20292383
ECCENTRICITY   = .0015813
INCLINATION    = 97.4090
RA_OF_ASC_NODE = 98.3009
ARG_OF_PERICENTER = 155.3455
MEAN_ANOMALY   = 204.8539

EPHEMERIS_TYPE = 0
CLASSIFICATION_TYPE = U
NORAD_CAT_ID   = 67274
ELEMENT_SET_NO = 999
REV_AT_EPOCH   = 360
BSTAR          = .59253E-3
MEAN_MOTION_DOT = .12857E-3
MEAN_MOTION_DDOT = 0

CCSDS_OMM_VERS = 2.0
CREATION_DATE  = 
ORIGINATOR     = 

OBJECT_NAME    = 2025-313AD
OBJECT_ID      = 2025-313AD
CENTER_NAME    = EARTH
REF_FRAME      = TEME
TIME_SYSTEM    = UTC
MEAN_ELEMENT_THEORY = SGP/SGP4

EPOCH          = 2026-01-21T10:33:23.724288
MEAN_MOTION    = 15.20368004
ECCENTRICITY   = .0015014
INCLINATION    = 97.4064
RA_OF_ASC_NODE = 98.4884
ARG_OF_PERICENTER = 157.5367
MEAN_ANOMALY   = 202.6529

EPHEMERIS_TYPE = 0
CLASSIFICATION_TYPE = U
NORAD_CAT_ID   = 67275
ELEMENT_SET_NO = 999
REV_AT_EPOCH   = 363
BSTAR          = .57051E-3
MEAN_MOTION_DOT = .12399E-3
MEAN_MOTION_DDOT = 0

CCSDS_OMM_VERS = 2.0
CREATION_DATE  = 
ORIGINATOR     = 

OBJECT_NAME    = 2025-313AE
OBJECT_ID      = 2025-313AE
CENTER_NAME    = EARTH
REF_FRAME      = TEME
TIME_SYSTEM    = UTC
MEAN_ELEMENT_THEORY = SGP/SGP4

EPOCH          = 2026-01-21T10:33:21.426912
MEAN_MOTION    = 15.20363788
ECCENTRICITY   = .0015001
INCLINATION    = 97.4069
RA_OF_ASC_NODE = 98.4893
ARG_OF_PERICENTER = 157.5571
MEAN_ANOMALY   = 202.6324

EPHEMERIS_TYPE = 0
CLASSIFICATION_TYPE = U
NORAD_CAT_ID   = 67276
ELEMENT_SET_NO = 999
REV_AT_EPOCH   = 363
BSTAR          = .5487E-3
MEAN_MOTION_DOT = .1192E-3
MEAN_MOTION_DDOT = 0

CCSDS_OMM_VERS = 2.0
CREATION_DATE  = 
ORIGINATOR     = 

OBJECT_NAME    = 2025-313AF
OBJECT_ID      = 2025-313AF
CENTER_NAME    = EARTH
REF_FRAME      = TEME
TIME_SYSTEM    = UTC
MEAN_ELEMENT_THEORY = SGP/SGP4

EPOCH          = 2026-01-21T10:33:54.088704
MEAN_MOTION    = 15.20317753
ECCENTRICITY   = .0014982
INCLINATION    = 97.4072
RA_OF_ASC_NODE = 98.4898
ARG_OF_PERICENTER = 157.4376
MEAN_ANOMALY   = 202.7521

EPHEMERIS_TYPE = 0
CLASSIFICATION_TYPE = U
NORAD_CAT_ID   = 67277
ELEMENT_SET_NO = 999
REV_AT_EPOCH   = 363
BSTAR          = .49625E-3
MEAN_MOTION_DOT = .10758E-3
MEAN_MOTION_DDOT = 0

CCSDS_OMM_VERS = 2.0
CREATION_DATE  = 
ORIGINATOR     = 

OBJECT_NAME    = 2025-313AG
OBJECT_ID      = 2025-313AG
CENTER_NAME    = EARTH
REF_FRAME      = TEME
TIME_SYSTEM    = UTC
MEAN_ELEMENT_THEORY = SGP/SGP4

EPOCH          = 2026-01-21T07:24:00.550080
MEAN_MOTION    = 15.20332767
ECCENTRICITY   = .0014928
INCLINATION    = 97.4076
RA_OF_ASC_NODE = 98.3614
ARG_OF_PERICENTER = 157.6633
MEAN_ANOMALY   = 202.5255

EPHEMERIS_TYPE = 0
CLASSIFICATION_TYPE = U
NORAD_CAT_ID   = 67278
ELEMENT_SET_NO = 999
REV_AT_EPOCH   = 362
BSTAR          = .72765E-3
MEAN_MOTION_DOT = .15823E-3
MEAN_MOTION_DDOT = 0

CCSDS_OMM_VERS = 2.0
CREATION_DATE  = 
ORIGINATOR     = 

OBJECT_NAME    = GALAPAGOS-UTE-SWSU
OBJECT_ID      = 2025-313AH
CENTER_NAME    = EARTH
REF_FRAME      = TEME
TIME_SYSTEM    = UTC
MEAN_ELEMENT_THEORY = SGP/SGP4

EPOCH          = 2026-01-21T10:32:11.715072
MEAN_MOTION    = 15.20430323
ECCENTRICITY   = .0015491
INCLINATION    = 97.4085
RA_OF_ASC_NODE = 98.4955
ARG_OF_PERICENTER = 154.4186
MEAN_ANOMALY   = 205.7819

EPHEMERIS_TYPE = 0
CLASSIFICATION_TYPE = U
NORAD_CAT_ID   = 67279
ELEMENT_SET_NO = 999
REV_AT_EPOCH   = 363
BSTAR          = .58792E-3
MEAN_MOTION_DOT = .12806E-3
MEAN_MOTION_DDOT = 0

