ZORKY-2M 7              
1 67268U 25313W   26021.30953560  .00015480  00000+0  71206-3 0  9991
2 67268  97.4102  98.3589 0016048 155.6351 204.5647 15.20311009  3611
2025-313X               
1 67269U 25313X   26021.30763501  .00028792  00000+0  13091-2 0  9993
2 67269  97.4129  98.3790 0015832 154.0842 206.1189 15.20584111  3618
SITRO-TD-3              
1 67270U 25313Y   26021.30952028  .00020103  00000+0  92205-3 0  9992
2 67270  97.4102  98.3692 0016052 155.6885 204.5111 15.20355309  3613
2025-313Z               
1 67271U 25313Z   26021.44268763  .00008971  00000+0  41678-3 0  9991
2 67271  97.4099  98.4867 0016181 151.2709 208.9421 15.20105531  3638
2025-313AA              
1 67272U 25313AA  26021.50457821  .00020626  00000+0  93986-3 0  9994
2 67272  97.4101  98.5552 0015774 155.4373 204.7617 15.20578405  3641
2025-313AB              
1 67273U 25313AB  26021.44266098  .00006700  00000+0  31266-3 0  9992
2 67273  97.4116  98.4912 0015153 159.3854 200.7996 15.20064407  3632
2025-313AC              
1 67274U 25313AC  26021.24329042  .00012857  00000+0  59253-3 0  9996
2 67274  97.4090  98.3009 0015813 155.3455 204.8539 15.20292383  3607
2025-313AD              
1 67275U 25313AD  26021.43985792  .00012399  00000+0  57051-3 0  9993
2 67275  97.4064  98.4884 0015014 157.5367 202.6529 15.20368004  3632
2025-313AE              
1 67276U 25313AE  26021.43983133  .00011920  00000+0  54870-3 0  9996
2 67276  97.4069  98.4893 0015001 157.5571 202.6324 15.20363788  3638
2025-313AF              
1 67277U 25313AF  26021.44020936  .00010758  00000+0  49625-3 0  9991
2 67277  97.4072  98.4898 0014982 157.4376 202.7521 15.20317753  3638
2025-313AG              
1 67278U 25313AG  26021.30833970  .00015823  00000+0  72765-3 0  9996
2 67278  97.4076  98.3614 0014928 157.6633 202.5255 15.20332767  3629
GALAPAGOS-UTE-SWSU      
1 67279U 25313AH  26021.43902448  .00012806  00000+0  58792-3 0  9990
2 67279  97.4085  98.4955 0015491 154.4186 205.7819 15.20430323  3632
